{"type":"FeatureCollection","features":[{"type":"Feature","properties":{"name":"Line 1","kind":"critical","sourceStyle":"#line-A52714-5263-nodesc"},"geometry":{"type":"LineString","coordinates":[[-70.5138183,-33.3650487],[-70.5139364,-33.3651047],[-70.514049,-33.365192]]}},{"type":"Feature","properties":{"name":"Line 2","kind":"reference","sourceStyle":"#line-000000-1200-nodesc"},"geometry":{"type":"LineString","coordinates":[[-70.514049,-33.365192],[-70.5131512,-33.3665378],[-70.5128991,-33.3664482],[-70.5138183,-33.3650487]]}},{"type":"Feature","properties":{"name":"Line 3","kind":"warning","sourceStyle":"#line-E65100-3325-nodesc"},"geometry":{"type":"LineString","coordinates":[[-70.5193017,-33.3679971],[-70.5191233,-33.3681517]]}},{"type":"Feature","properties":{"name":"Polygon 4","kind":"boundary","sourceStyle":"#poly-A52714-3001-61-nodesc"},"geometry":{"type":"Polygon","coordinates":[[[-70.5171654,-33.3479807],[-70.5171638,-33.3479784],[-70.5169118,-33.3474093],[-70.51989,-33.3461811],[-70.520059,-33.3461295],[-70.521867,-33.3459951],[-70.5218724,-33.3461273],[-70.5214615,-33.3463826],[-70.5197691,-33.3470548],[-70.5199065,-33.347242],[-70.5202633,-33.3472711],[-70.5205718,-33.3475176],[-70.5204323,-33.3483488],[-70.5201031,-33.3490149],[-70.520637,-33.3491762],[-70.5207459,-33.3492523],[-70.5208344,-33.3491627],[-70.5215077,-33.349389],[-70.5216595,-33.3492902],[-70.5220565,-33.3492578],[-70.5219814,-33.3489889],[-70.5223702,-33.3489082],[-70.522331,-33.3486171],[-70.5225012,-33.3486003],[-70.5224824,-33.3484334],[-70.5236028,-33.3482598],[-70.5238495,-33.3483831],[-70.5247936,-33.3482484],[-70.5248821,-33.3484209],[-70.524003,-33.349663],[-70.5230576,-33.3497579],[-70.5230656,-33.349926],[-70.5236429,-33.3503501],[-70.5252093,-33.3510357],[-70.5261964,-33.3513897],[-70.5261986,-33.3538487],[-70.5262308,-33.3541892],[-70.5270367,-33.3545945],[-70.5269481,-33.3547648],[-70.5267064,-33.3559268],[-70.5278174,-33.3560112],[-70.5279648,-33.3567954],[-70.5267043,-33.3570597],[-70.5264832,-33.3572877],[-70.5252432,-33.3581813],[-70.5242617,-33.3591357],[-70.5239115,-33.3597059],[-70.5234823,-33.3601853],[-70.5228902,-33.3606147],[-70.5225093,-33.360832],[-70.5222761,-33.3612061],[-70.5222705,-33.3615175],[-70.5224258,-33.3619611],[-70.5226164,-33.3624144],[-70.5229747,-33.3639077],[-70.5227934,-33.3635099],[-70.5227075,-33.3639669],[-70.522493,-33.3644597],[-70.522083,-33.3648974],[-70.5216914,-33.3652065],[-70.521525,-33.3654888],[-70.5211226,-33.3663938],[-70.5205562,-33.3676848],[-70.5199151,-33.3685165],[-70.5193385,-33.3680357],[-70.5191601,-33.3681903],[-70.5189173,-33.3681943],[-70.5187414,-33.3682637],[-70.5186395,-33.3683768],[-70.5183324,-33.3682447],[-70.5160596,-33.3668271],[-70.5150324,-33.3661326],[-70.5144616,-33.3656769],[-70.5141934,-33.3653409],[-70.5140858,-33.3652306],[-70.5139732,-33.3651433],[-70.5138551,-33.3650873],[-70.513772,-33.3648779],[-70.5134795,-33.3647335],[-70.51336,-33.36472],[-70.5128764,-33.3644693],[-70.5131688,-33.3640639],[-70.5129998,-33.3640101],[-70.5129355,-33.3641356],[-70.5121229,-33.3639586],[-70.5123186,-33.363533],[-70.5123281,-33.3632798],[-70.5124756,-33.3628676],[-70.5127143,-33.3624576],[-70.5119445,-33.3622089],[-70.5120504,-33.3619517],[-70.5128656,-33.3621982],[-70.5130507,-33.3616829],[-70.5129676,-33.3616695],[-70.5130158,-33.3615507],[-70.5130648,-33.3615528],[-70.5132881,-33.3610585],[-70.5133955,-33.3606172],[-70.5129207,-33.3604671],[-70.5131882,-33.3597382],[-70.5123124,-33.3594207],[-70.511505,-33.3590135],[-70.5111509,-33.3588926],[-70.5104716,-33.358666],[-70.5110366,-33.3571204],[-70.5113478,-33.3572335],[-70.5114149,-33.357139],[-70.5114749,-33.356971],[-70.511692,-33.3570225],[-70.5122507,-33.3553355],[-70.5122662,-33.3552914],[-70.5115212,-33.3551089],[-70.5114707,-33.3547294],[-70.5116187,-33.3547033],[-70.5114155,-33.3538698],[-70.5112064,-33.3529495],[-70.5115181,-33.3529354],[-70.5115248,-33.3528273],[-70.5114849,-33.3528245],[-70.5114822,-33.3526038],[-70.5112435,-33.352615],[-70.5111749,-33.3520141],[-70.5115696,-33.3519959],[-70.5115482,-33.3517617],[-70.5115575,-33.3516699],[-70.5116005,-33.3515556],[-70.5118982,-33.3515915],[-70.5120005,-33.3510941],[-70.5121615,-33.3511254],[-70.5122794,-33.3505855],[-70.5123143,-33.350432],[-70.5124116,-33.3504447],[-70.5124907,-33.3500269],[-70.5127053,-33.3500807],[-70.5136446,-33.3500327],[-70.5138016,-33.3499109],[-70.5150688,-33.3495725],[-70.5174169,-33.3490757],[-70.517309,-33.3489305],[-70.5167191,-33.3482908],[-70.5171654,-33.3479807]]]}}]}